NORAD_CAT_ID,OBJECT_NAME,OBJECT_TYPE,EPOCH,MEAN_MOTION,ECCENTRICITY,INCLINATION,RA_OF_ASC_NODE,ARG_OF_PERICENTER,MEAN_ANOMALY,BSTAR,MEAN_MOTION_DOT,MEAN_MOTION_DDOT,TLE_LINE0,TLE_LINE1,TLE_LINE2,SEMIMAJOR_AXIS,PERIOD,APOGEE,PERIGEE,DECAYED
53899.0,STARLINK-5042,PAYLOAD,2024-03-03 04:53:21,15.08838748,0.0001484,53.2186,30.0956,98.7674,261.3486,8.3551e-05,1.042e-05,0.0,0 STARLINK-5042,1 53899U 22119P   24063.20372414  .00001042  00000-0  83551-4 0  9990,2 53899  53.2186  30.0956 0001484  98.7674 261.3486 15.08838748 80080,6917.884,95.438,540.776,538.723,0.0
53899.0,STARLINK-5042,PAYLOAD,2024-03-03 08:04:07,15.08842671,0.000145,53.2184,29.4984,90.8991,269.2167,0.00011726,1.579e-05,0.0,0 STARLINK-5042,1 53899U 22119P   24063.33620029  .00001579  00000-0  11726-3 0  9991,2 53899  53.2184  29.4984 0001450  90.8991 269.2167 15.08842671 80521,6917.872,95.437,540.74,538.734,0.0
53899.0,STARLINK-5042,PAYLOAD,2024-03-04 06:19:31,15.08849079,0.0001638,53.2195,25.3332,89.3574,270.7606,0.0001312,1.801e-05,0.0,0 STARLINK-5042,1 53899U 22119P   24064.26355741  .00001801  00000-0  13120-3 0  9998,2 53899  53.2195  25.3332 0001638  89.3574 270.7606 15.08849079 80246,6917.853,95.437,540.851,538.584,0.0
53899.0,STARLINK-5042,PAYLOAD,2024-03-04 14:16:25,15.08863041,0.0001553,53.219,23.8464,75.662,284.4544,0.00014906,2.087e-05,0.0,0 STARLINK-5042,1 53899U 22119P   24064.59474333  .00002087  00000-0  14906-3 0  9993,2 53899  53.2190  23.8464 0001553  75.6620 284.4544 15.08863041 80299,6917.81,95.436,540.749,538.601,0.0
53899.0,STARLINK-5042,PAYLOAD,2024-03-05 02:59:34,15.08813889,0.0001621,53.2199,21.4696,76.933,283.1843,-0.00019681,-3.417e-05,0.0,0 STARLINK-5042,1 53899U 22119P   24065.12470990 -.00003417  00000-0 -19681-3 0  9993,2 53899  53.2199  21.4696 0001621  76.9330 283.1843 15.08813889 80379,6917.96,95.439,540.947,538.704,0.0
53899.0,STARLINK-5042,PAYLOAD,2024-03-05 06:10:20,15.08821382,0.0001619,53.22,20.8751,72.1011,288.0158,-0.00013111,-2.373e-05,0.0,0 STARLINK-5042,1 53899U 22119P   24065.25718546 -.00002373  00000-0 -13111-3 0  9991,2 53899  53.2200  20.8751 0001619  72.1011 288.0158 15.08821382 80817,6917.937,95.439,540.922,538.682,0.0
53899.0,STARLINK-5042,PAYLOAD,2024-03-05 20:28:48,15.0883364,0.0001423,53.2199,18.1982,76.6262,283.4889,5.3278e-06,-2.03e-06,0.0,0 STARLINK-5042,1 53899U 22119P   24065.85333730 -.00000203  00000-0  53278-5 0  9994,2 53899  53.2199  18.1982 0001423  76.6262 283.4889 15.08833640 80483,6917.9,95.438,540.749,538.78,0.0
53899.0,STARLINK-5042,PAYLOAD,2024-03-06 02:50:20,15.08844107,0.000143,53.2163,17.0094,74.7572,285.3578,0.00011539,1.549e-05,0.0,0 STARLINK-5042,1 53899U 22119P   24066.11829069  .00001549  00000-0  11539-3 0  9994,2 53899  53.2163  17.0094 0001430  74.7572 285.3578 15.08844107 80528,6917.868,95.437,540.722,538.744,0.0
53899.0,STARLINK-5042,PAYLOAD,2024-03-06 04:25:43,15.08847342,0.0001465,53.2168,16.7116,76.3436,283.7719,0.00017792,2.545e-05,0.0,0 STARLINK-5042,1 53899U 22119P   24066.18452932  .00002545  00000-0  17792-3 0  9996,2 53899  53.2168  16.7116 0001465  76.3436 283.7719 15.08847342 80959,6917.858,95.437,540.736,538.709,0.0
53899.0,STARLINK-5042,PAYLOAD,2024-03-07 02:41:07,15.0883644,0.0001376,53.2177,12.5467,84.4284,275.6865,0.00040739,6.201e-05,0.0,0 STARLINK-5042,1 53899U 22119P   24067.11189528  .00006201  00000-0  40739-3 0  9998,2 53899  53.2177  12.5467 0001376  84.4284 275.6865 15.08836440 80672,6917.891,95.438,540.708,538.804,0.0
53899.0,STARLINK-5042,PAYLOAD,2024-03-07 13:48:48,15.08849005,0.0001356,53.2187,10.4654,87.6704,272.4444,0.00027243,4.051e-05,0.0,0 STARLINK-5042,1 53899U 22119P   24067.57556289  .00004051  00000-0  27243-3 0  9996,2 53899  53.2187  10.4654 0001356  87.6704 272.4444 15.08849005 81162,6917.853,95.437,540.656,538.78,0.0
53899.0,STARLINK-5042,PAYLOAD,2024-03-08 00:56:31,15.08835391,0.0001247,53.2193,8.3847,86.1775,273.936,7.9644e-05,9.8e-06,0.0,0 STARLINK-5042,1 53899U 22119P   24068.03925614  .00000980  00000-0  79644-4 0  9990,2 53899  53.2193   8.3847 0001247  86.1775 273.9360 15.08835391 80817,6917.894,95.438,540.622,538.897,0.0
53899.0,STARLINK-5042,PAYLOAD,2024-03-08 05:42:40,15.08846409,0.0001372,53.2185,7.4905,103.0982,257.0163,-2.4508e-05,-6.78e-06,0.0,0 STARLINK-5042,1 53899U 22119P   24068.23796935 -.00000678  00000-0 -24508-4 0  9999,2 53899  53.2185   7.4905 0001372 103.0982 257.0163 15.08846409 80840,6917.861,95.437,540.675,538.777,0.0
53899.0,STARLINK-5042,PAYLOAD,2024-03-09 05:33:27,15.08844515,0.0001366,53.2194,3.0315,97.1155,262.9992,1.9767e-05,2.7e-07,0.0,0 STARLINK-5042,1 53899U 22119P   24069.23156802  .00000027  00000-0  19767-4 0  9990,2 53899  53.2194   3.0315 0001366  97.1155 262.9992 15.08844515 81410,6917.867,95.437,540.677,538.787,0.0
53899.0,STARLINK-5042,PAYLOAD,2024-03-10 02:13:28,15.08838543,8.35e-05,53.2182,359.1648,82.8827,277.226,0.00012831,1.755e-05,0.0,0 STARLINK-5042,1 53899U 22119P   24070.09268793  .00001755  00000-0  12831-3 0  9992,2 53899  53.2182 359.1648 0000835  82.8827 277.2260 15.08838543 81127,6917.885,95.438,540.327,539.172,0.0
53899.0,STARLINK-5042,PAYLOAD,2024-03-10 11:45:46,15.08852757,0.0001243,53.2189,357.3836,104.5151,255.5979,0.00018981,2.735e-05,0.0,0 STARLINK-5042,1 53899U 22119P   24070.49011624  .00002735  00000-0  18981-3 0  9996,2 53899  53.2189 357.3836 0001243 104.5151 255.5979 15.08852757 81184,6917.841,95.437,540.566,538.847,0.0
53899.0,STARLINK-5042,PAYLOAD,2024-03-10 19:42:42,15.08839332,0.0002033,53.2184,355.8965,84.5041,275.6183,7.2423e-05,8.65e-06,0.0,0 STARLINK-5042,1 53899U 22119P   24070.82133098  .00000865  00000-0  72423-4 0  9997,2 53899  53.2184 355.8965 0002033  84.5041 275.6183 15.08839332 81238,6917.882,95.438,541.154,538.341,0.0
53899.0,STARLINK-5042,PAYLOAD,2024-03-10 22:53:29,15.08831337,0.0001523,53.2184,355.3015,87.4865,272.6302,2.7856e-06,-2.44e-06,0.0,0 STARLINK-5042,1 53899U 22119P   24070.95381706 -.00000244  00000-0  27856-5 0  9995,2 53899  53.2184 355.3015 0001523  87.4865 272.6302 15.08831337 81673,6917.907,95.438,540.825,538.718,0.0
53899.0,STARLINK-5042,PAYLOAD,2024-03-11 11:36:33,15.0884609,0.0001306,53.2189,352.9225,85.957,274.1571,0.00012229,1.659e-05,0.0,0 STARLINK-5042,1 53899U 22119P   24071.48372507  .00001659  00000-0  12229-3 0  9999,2 53899  53.2189 352.9225 0001306  85.9570 274.1571 15.08846090 81755,6917.862,95.437,540.63,538.823,0.0
53899.0,STARLINK-5042,PAYLOAD,2024-03-12 03:30:26,15.08837522,0.0001484,53.2204,349.9499,83.8584,276.2577,-5.3911e-05,-1.146e-05,0.0,0 STARLINK-5042,1 53899U 22119P   24072.14613805 -.00001146  00000-0 -53911-4 0  9999,2 53899  53.2204 349.9499 0001484  83.8584 276.2577 15.08837522 81435,6917.888,95.438,540.78,538.726,0.0
53899.0,STARLINK-5042,PAYLOAD,2024-03-12 05:05:49,15.08838708,0.000148,53.22,349.6508,77.6266,282.4892,-5.2404e-05,-1.122e-05,0.0,0 STARLINK-5042,1 53899U 22119P   24072.21237739 -.00001122  00000-0 -52404-4 0  9995,2 53899  53.2200 349.6508 0001480  77.6266 282.4892 15.08838708 81866,6917.884,95.438,540.773,538.725,0.0
53899.0,STARLINK-5042,PAYLOAD,2024-03-13 03:21:12,15.0884332,0.0001552,53.2192,345.4879,80.2136,279.9031,0.00021434,3.125e-05,0.0,0 STARLINK-5042,1 53899U 22119P   24073.13973302  .00003125  00000-0  21434-3 0  9991,2 53899  53.2192 345.4879 0001552  80.2136 279.9031 15.08843320 81588,6917.87,95.437,540.809,538.662,0.0
53899.0,STARLINK-5042,PAYLOAD,2024-03-13 11:18:08,15.08853608,0.0001626,53.219,344.001,76.8049,283.3124,0.00025384,3.756e-05,0.0,0 STARLINK-5042,1 53899U 22119P   24073.47092718  .00003756  00000-0  25384-3 0  9999,2 53899  53.2190 344.0010 0001626  76.8049 283.3124 15.08853608 82059,6917.839,95.437,540.829,538.579,0.0
53899.0,STARLINK-5042,PAYLOAD,2024-03-13 22:25:50,15.08837768,0.0001578,53.2189,341.9199,81.2613,278.8558,0.00018595,2.672e-05,0.0,0 STARLINK-5042,1 53899U 22119P   24073.93461678  .00002672  00000-0  18595-3 0  9997,2 53899  53.2189 341.9199 0001578  81.2613 278.8558 15.08837768 82121,6917.887,95.438,540.844,538.661,0.0
53899.0,STARLINK-5042,PAYLOAD,2024-03-14 01:36:36,15.08843329,0.0001472,53.2174,341.3253,87.5607,272.5553,0.00018132,2.599e-05,0.0,0 STARLINK-5042,1 53899U 22119P   24074.06709308  .00002599  00000-0  18132-3 0  9992,2 53899  53.2174 341.3253 0001472  87.5607 272.5553 15.08843329 81726,6917.87,95.437,540.754,538.717,0.0
53899.0,STARLINK-5042,PAYLOAD,2024-03-14 22:16:37,15.08842859,0.0001575,53.217,337.4609,81.832,278.285,7.3286e-05,8.79e-06,0.0,0 STARLINK-5042,1 53899U 22119P   24074.92821436  .00000879  00000-0  73286-4 0  9995,2 53899  53.2170 337.4609 0001575  81.8320 278.2850 15.08842859 82277,6917.872,95.437,540.826,538.647,0.0
53899.0,STARLINK-5042,PAYLOAD,2024-03-15 03:02:47,15.08840948,0.0001544,53.217,336.568,82.8159,277.3009,6.0425e-05,6.74e-06,0.0,0 STARLINK-5042,1 53899U 22119P   24075.12693497  .00000674  00000-0  60425-4 0  9996,2 53899  53.2170 336.5680 0001544  82.8159 277.3009 15.08840948 81882,6917.877,95.437,540.811,538.674,0.0
53899.0,STARLINK-5042,PAYLOAD,2024-03-15 22:07:25,15.08838907,0.0001543,53.2178,332.9981,84.8114,275.3055,0.00014536,2.026e-05,0.0,0 STARLINK-5042,1 53899U 22119P   24075.92181777  .00002026  00000-0  14536-3 0  9991,2 53899  53.2178 332.9981 0001543  84.8114 275.3055 15.08838907 82428,6917.884,95.438,540.816,538.681,0.0
53899.0,STARLINK-5042,PAYLOAD,2024-03-15 23:42:48,15.08840315,0.0001583,53.2185,332.6999,77.4939,282.623,0.00011313,1.513e-05,0.0,0 STARLINK-5042,1 53899U 22119P   24075.98805750  .00001513  00000-0  11313-3 0  9991,2 53899  53.2185 332.6999 0001583  77.4939 282.6230 15.08840315 82432,6917.879,95.438,540.84,538.649,0.0
53899.0,STARLINK-5042,PAYLOAD,2024-03-16 20:22:49,15.08837735,0.0001325,53.2172,328.8347,102.0543,258.0597,0.00010718,1.418e-05,0.0,0 STARLINK-5042,1 53899U 22119P   24076.84917849  .00001418  00000-0  10718-3 0  9992,2 53899  53.2172 328.8347 0001325 102.0543 258.0597 15.08837735 82145,6917.887,95.438,540.669,538.836,0.0
